NORAD_CAT_ID,OBJECT_NAME,OBJECT_TYPE,EPOCH,MEAN_MOTION,ECCENTRICITY,INCLINATION,RA_OF_ASC_NODE,ARG_OF_PERICENTER,MEAN_ANOMALY,BSTAR,MEAN_MOTION_DOT,MEAN_MOTION_DDOT,TLE_LINE0,TLE_LINE1,TLE_LINE2,SEMIMAJOR_AXIS,PERIOD,APOGEE,PERIGEE,DECAYED
52837.0,STARLINK-4036,PAYLOAD,2023-11-21 02:05:40,15.0885547,0.0001593,53.2154,203.2412,91.7176,268.3999,-8.3902e-05,-1.624e-05,0.0,0 STARLINK-4036,1 52837U 22062H   23325.08727503 -.00001624  00000-0 -83902-4 0  9995,2 52837  53.2154 203.2412 0001593  91.7176 268.3999 15.08855470 79038,6917.833,95.437,540.8,538.596,0.0
52837.0,STARLINK-4036,PAYLOAD,2023-11-21 21:10:18,15.08843292,0.0001593,53.2164,199.6721,96.5438,263.5735,-6.0058e-05,-1.244e-05,0.0,0 STARLINK-4036,1 52837U 22062H   23325.88216371 -.00001244  00000-0 -60058-4 0  9994,2 52837  53.2164 199.6721 0001593  96.5438 263.5735 15.08843292 79151,6917.87,95.437,540.837,538.633,0.0
52837.0,STARLINK-4036,PAYLOAD,2023-11-22 01:56:28,15.08845232,0.0001543,53.216,198.7788,97.3977,262.7191,-2.5964e-06,-3.29e-06,0.0,0 STARLINK-4036,1 52837U 22062H   23326.08087995 -.00000329  00000-0 -25964-5 0  9996,2 52837  53.2160 198.7788 0001543  97.3977 262.7191 15.08845232 79188,6917.864,95.437,540.797,538.662,0.0
52837.0,STARLINK-4036,PAYLOAD,2023-11-22 21:01:05,15.08848295,0.0001492,53.2148,195.2107,104.0256,256.0902,0.00012397,1.686e-05,0.0,0 STARLINK-4036,1 52837U 22062H   23326.87575404  .00001686  00000-0  12397-3 0  9999,2 52837  53.2148 195.2107 0001492 104.0256 256.0902 15.08848295 79302,6917.855,95.437,540.752,538.688,0.0
52837.0,STARLINK-4036,PAYLOAD,2023-11-22 22:36:28,15.08850302,0.0001434,53.2149,194.9133,100.5382,259.5771,0.00013422,1.849e-05,0.0,0 STARLINK-4036,1 52837U 22062H   23326.94199318  .00001849  00000-0  13422-3 0  9994,2 52837  53.2149 194.9133 0001434 100.5382 259.5771 15.08850302 79310,6917.849,95.437,540.706,538.722,0.0
52837.0,STARLINK-4036,PAYLOAD,2023-11-23 19:16:29,15.08832713,0.0001554,53.2153,191.0489,108.1269,251.9893,-3.6563e-05,-8.7e-06,0.0,0 STARLINK-4036,1 52837U 22062H   23327.80312488 -.00000870  00000-0 -36563-4 0  9992,2 52837  53.2153 191.0489 0001554 108.1269 251.9893 15.08832713 79449,6917.903,95.438,540.843,538.693,0.0
52837.0,STARLINK-4036,PAYLOAD,2023-11-23 22:27:16,15.08831176,0.0001398,53.2149,190.4538,96.8694,263.2457,-5.3895e-05,-1.145e-05,0.0,0 STARLINK-4036,1 52837U 22062H   23327.93560670 -.00001145  00000-0 -53895-4 0  9997,2 52837  53.2149 190.4538 0001398  96.8694 263.2457 15.08831176 79469,6917.907,95.438,540.739,538.805,0.0
52837.0,STARLINK-4036,PAYLOAD,2023-11-24 00:02:39,15.08831889,0.0001337,53.215,190.1567,99.9992,260.1151,-3.6602e-05,-8.7e-06,0.0,0 STARLINK-4036,1 52837U 22062H   23328.00184648 -.00000870  00000-0 -36602-4 0  9994,2 52837  53.2150 190.1567 0001337  99.9992 260.1151 15.08831889 79477,6917.905,95.438,540.695,538.845,0.0
52837.0,STARLINK-4036,PAYLOAD,2023-11-24 22:18:03,15.08841365,0.00013,53.2143,185.9969,92.5045,267.6096,0.00019134,2.759e-05,0.0,0 STARLINK-4036,1 52837U 22062H   23328.92920748  .00002759  00000-0  19134-3 0  9990,2 52837  53.2143 185.9969 0001300  92.5045 267.6096 15.08841365 79611,6917.876,95.437,540.641,538.842,0.0
52837.0,STARLINK-4036,PAYLOAD,2023-11-24 23:53:26,15.08844441,0.0001327,53.2143,185.6981,102.6483,257.4658,0.00028971,4.326e-05,0.0,0 STARLINK-4036,1 52837U 22062H   23328.99544625  .00004326  00000-0  28971-3 0  9994,2 52837  53.2143 185.6981 0001327 102.6483 257.4658 15.08844441 79620,6917.867,95.437,540.65,538.814,0.0
52837.0,STARLINK-4036,PAYLOAD,2023-11-25 09:25:45,15.08841774,0.0001341,53.2139,183.9146,100.0595,260.0549,0.00031492,4.728e-05,0.0,0 STARLINK-4036,1 52837U 22062H   23329.39288920  .00004728  00000-0  31492-3 0  9990,2 52837  53.2139 183.9146 0001341 100.0595 260.0549 15.08841774 79682,6917.875,95.437,540.668,538.812,0.0
52837.0,STARLINK-4036,PAYLOAD,2023-11-25 22:08:49,15.08866353,0.0001226,53.2139,181.535,108.7535,251.359,0.00077935,0.00012146,0.0,0 STARLINK-4036,1 52837U 22062H   23329.92280011  .00012146  00000-0  77935-3 0  9997,2 52837  53.2139 181.5350 0001226 108.7535 251.3590 15.08866353 79762,6917.8,95.436,540.513,538.817,0.0
52837.0,STARLINK-4036,PAYLOAD,2023-11-26 18:48:50,15.08860025,0.0002184,53.2133,177.6673,70.9517,289.1712,0.00039138,5.95e-05,0.0,0 STARLINK-4036,1 52837U 22062H   23330.78391743  .00005950  00000-0  39138-3 0  9996,2 52837  53.2133 177.6673 0002184  70.9517 289.1712 15.08860025 79893,6917.819,95.436,541.195,538.173,0.0
52837.0,STARLINK-4036,PAYLOAD,2023-11-26 20:24:13,15.08830701,0.0001507,53.2134,177.3726,79.9584,280.1578,-0.0006166,-0.00010085,0.0,0 STARLINK-4036,1 52837U 22062H   23330.85015657 -.00010085  00000-0 -61660-3 0  9993,2 52837  53.2134 177.3726 0001507  79.9584 280.1578 15.08830701 79902,6917.909,95.438,540.816,538.731,0.0
52837.0,STARLINK-4036,PAYLOAD,2023-11-27 13:53:28,15.08825132,0.0001525,53.2137,174.0992,94.6496,265.467,-2.979e-05,-7.62e-06,0.0,0 STARLINK-4036,1 52837U 22062H   23331.57880429 -.00000762  00000-0 -29790-4 0  9990,2 52837  53.2137 174.0992 0001525  94.6496 265.4670 15.08825132 80015,6917.926,95.438,540.846,538.736,0.0
52837.0,STARLINK-4036,PAYLOAD,2023-11-27 20:15:01,15.08829859,0.0001539,53.2141,172.9088,87.3666,272.7503,0.00037385,5.665e-05,0.0,0 STARLINK-4036,1 52837U 22062H   23331.84376747  .00005665  00000-0  37385-3 0  9996,2 52837  53.2141 172.9088 0001539  87.3666 272.7503 15.08829859 80056,6917.911,95.438,540.841,538.712,0.0
52837.0,STARLINK-4036,PAYLOAD,2023-11-28 13:44:16,15.08841193,0.000153,53.2134,169.6392,83.2373,276.8793,0.00056817,8.766e-05,0.0,0 STARLINK-4036,1 52837U 22062H   23332.57241046  .00008766  00000-0  56817-3 0  9996,2 52837  53.2134 169.6392 0001530  83.2373 276.8793 15.08841193 80163,6917.877,95.437,540.8,538.683,0.0
52837.0,STARLINK-4036,PAYLOAD,2023-11-28 20:05:48,15.08847297,0.0001469,53.2139,168.4489,88.8982,271.2178,0.00060235,9.313e-05,0.0,0 STARLINK-4036,1 52837U 22062H   23332.83736869  .00009313  00000-0  60235-3 0  9995,2 52837  53.2139 168.4489 0001469  88.8982 271.2178 15.08847297 80202,6917.858,95.437,540.739,538.707,0.0
52837.0,STARLINK-4036,PAYLOAD,2023-11-29 18:21:12,15.0884456,0.0001477,53.2141,164.285,92.7036,267.4125,0.00020752,3.017e-05,0.0,0 STARLINK-4036,1 52837U 22062H   23333.76472776  .00003017  00000-0  20752-3 0  9997,2 52837  53.2141 164.2850 0001477  92.7036 267.4125 15.08844560 80348,6917.866,95.437,540.753,538.71,0.0
52837.0,STARLINK-4036,PAYLOAD,2023-11-30 11:50:27,15.08840476,0.0001425,53.2149,161.0137,87.2583,272.8572,3.6243e-05,2.89e-06,0.0,0 STARLINK-4036,1 52837U 22062H   23334.49336955  .00000289  00000-0  36243-4 0  9997,2 52837  53.2149 161.0137 0001425  87.2583 272.8572 15.08840476 80458,6917.879,95.438,540.73,538.758,0.0
52837.0,STARLINK-4036,PAYLOAD,2023-12-01 19:38:09,15.08846265,0.0001426,53.2161,155.0684,86.7795,273.336,0.00018918,2.725e-05,0.0,0 STARLINK-4036,1 52837U 22062H   23335.81816797  .00002725  00000-0  18918-3 0  9996,2 52837  53.2161 155.0684 0001426  86.7795 273.3360 15.08846265 80657,6917.861,95.437,540.713,538.74,0.0
52837.0,STARLINK-4036,PAYLOAD,2023-12-02 17:53:32,15.08866182,0.000173,53.2152,150.9068,76.3658,283.7527,-3.2819e-05,-8.11e-06,0.0,0 STARLINK-4036,1 52837U 22062H   23336.74551407 -.00000811  00000-0 -32819-4 0  9996,2 52837  53.2152 150.9068 0001730  76.3658 283.7527 15.08866182 80793,6917.8,95.436,540.862,538.469,0.0
52837.0,STARLINK-4036,PAYLOAD,2023-12-03 11:22:47,15.08840919,0.0001371,53.2156,147.6321,111.3185,248.7954,-9.7098e-05,-1.833e-05,0.0,0 STARLINK-4036,1 52837U 22062H   23337.47416067 -.00001833  00000-0 -97098-4 0  9994,2 52837  53.2156 147.6321 0001371 111.3185 248.7954 15.08840919 80906,6917.878,95.437,540.691,538.794,0.0
52837.0,STARLINK-4036,PAYLOAD,2023-12-03 17:44:20,15.08830115,0.0001345,53.2157,146.4406,109.4872,250.6265,-0.00025424,-4.331e-05,0.0,0 STARLINK-4036,1 52837U 22062H   23337.73912595 -.00004331  00000-0 -25424-3 0  9999,2 52837  53.2157 146.4406 0001345 109.4872 250.6265 15.08830115 80948,6917.911,95.438,540.706,538.845,0.0
52837.0,STARLINK-4036,PAYLOAD,2023-12-04 20:45:56,15.08798142,0.0002005,53.216,141.3833,131.5374,228.5791,0.00052894,8.131e-05,0.0,0 STARLINK-4036,1 52837U 22062H   23338.86523476  .00008131  00000-0  52894-3 0  9991,2 52837  53.2160 141.3833 0002005 131.5374 228.5791 15.08798142 81118,6918.008,95.44,541.26,538.486,0.0
52837.0,STARLINK-4036,PAYLOAD,2023-12-05 14:15:10,15.08823897,0.0001366,53.2157,138.1173,86.5379,273.5769,0.00022466,3.288e-05,0.0,0 STARLINK-4036,1 52837U 22062H   23339.59386757  .00003288  00000-0  22466-3 0  9991,2 52837  53.2157 138.1173 0001366  86.5379 273.5769 15.08823897 81221,6917.93,95.439,540.74,538.85,0.0
52837.0,STARLINK-4036,PAYLOAD,2023-12-05 20:36:42,15.08828376,0.000132,53.2157,136.9269,99.6719,260.4422,0.00024807,3.661e-05,0.0,0 STARLINK-4036,1 52837U 22062H   23339.85882700  .00003661  00000-0  24807-3 0  9995,2 52837  53.2157 136.9269 0001320  99.6719 260.4422 15.08828376 81268,6917.916,95.438,540.694,538.868,0.0
52837.0,STARLINK-4036,PAYLOAD,2023-12-06 10:55:09,15.08847958,0.0001328,53.2162,134.2513,85.6484,274.466,0.00013784,1.907e-05,0.0,0 STARLINK-4036,1 52837U 22062H   23340.45497493  .00001907  00000-0  13784-3 0  9997,2 52837  53.2162 134.2513 0001328  85.6484 274.4660 15.08847958 81355,6917.856,95.437,540.64,538.802,0.0
52837.0,STARLINK-4036,PAYLOAD,2023-12-06 14:05:56,15.08848089,0.0001424,53.2136,133.6578,92.1572,267.9583,0.00031133,4.671e-05,0.0,0 STARLINK-4036,1 52837U 22062H   23340.58746325  .00004671  00000-0  31133-3 0  9991,2 52837  53.2136 133.6578 0001424  92.1572 267.9583 15.08848089 81377,6917.856,95.437,540.706,538.736,0.0
52837.0,STARLINK-4036,PAYLOAD,2023-12-07 09:10:34,15.08849205,0.000151,53.2126,130.091,85.0416,275.0749,0.00019708,2.851e-05,0.0,0 STARLINK-4036,1 52837U 22062H   23341.38233939  .00002851  00000-0  19708-3 0  9994,2 52837  53.2126 130.0910 0001510  85.0416 275.0749 15.08849205 81499,6917.852,95.437,540.762,538.673,0.0
